NORAD_CAT_ID,OBJECT_NAME,OBJECT_TYPE,EPOCH,MEAN_MOTION,ECCENTRICITY,INCLINATION,RA_OF_ASC_NODE,ARG_OF_PERICENTER,MEAN_ANOMALY,BSTAR,MEAN_MOTION_DOT,MEAN_MOTION_DDOT,TLE_LINE0,TLE_LINE1,TLE_LINE2,SEMIMAJOR_AXIS,PERIOD,APOGEE,PERIGEE,DECAYED
53640.0,STARLINK-4597,PAYLOAD,2022-10-04 06:00:00,15.73249899,0.0001134,53.2147,104.2459,115.7129,118.5918,-0.00053444,-0.00075117,0.0,0 STARLINK-4597,1 53640U 22104BE  22277.25001157 -.00075117  00000-0 -53444-3 0  9994,2 53640  53.2147 104.2459 0001134 115.7129 118.5918 15.73249899  5872,6727.753000000002,91.53,350.381,348.855,0.0
53640.0,STARLINK-4597,PAYLOAD,2022-10-04 14:00:01,15.73217511,0.0001186,53.215,102.5959,116.9644,206.2935,-0.00038334,-0.00054113,0.0,0 STARLINK-4597,1 53640U 22104BE  22277.58334491 -.00054113  00000-0 -38334-3 0  9994,2 53640  53.2150 102.5959 0001186 116.9644 206.2935 15.73217511  1308,6727.845,91.532,350.5080000000001,348.912,0.0
53640.0,STARLINK-4597,PAYLOAD,2022-10-04 22:00:00,15.73147175,0.0001030999999999,53.2149,100.9483,103.9333,308.253,0.00016726,0.00022865,0.0,0 STARLINK-4597,1 53640U 22104BE  22277.91667824  .00022865  00000-0  16726-3 0  9998,2 53640  53.2149 100.9483 0001031 103.9333 308.2530 15.73147175  1302,6728.045999999999,91.536,350.60400000000016,349.217,0.0
53640.0,STARLINK-4597,PAYLOAD,2022-10-05 14:00:01,15.73201301,0.0001225,53.2145,97.6477,110.3858,119.6013,-0.00034413,-0.0004864,0.0,0 STARLINK-4597,1 53640U 22104BE  22278.58335648 -.00048640  00000-0 -34413-3 0  9992,2 53640  53.2145  97.6477 0001225 110.3858 119.6013 15.73201301  1304,6727.891,91.533,350.581,348.932,0.0
53640.0,STARLINK-4597,PAYLOAD,2022-10-05 22:00:00,15.7313165,0.0001274,53.2143,96.0,93.6765,225.1638,0.00079725,0.00112447,0.0,0 STARLINK-4597,1 53640U 22104BE  22278.91667824  .00112447  00000-0  79725-3 0  9993,2 53640  53.2143  96.0000 0001274  93.6765 225.1638 15.73131650  6132,6728.09,91.537,350.81199999999984,349.098,0.0
53640.0,STARLINK-4597,PAYLOAD,2022-10-06 14:00:01,15.73263975,0.0001296,53.2147,92.6989,100.0369,36.6253,-0.00028361,-0.00040341,0.0,0 STARLINK-4597,1 53640U 22104BE  22279.58334491 -.00040341  00000-0 -28361-3 0  9993,2 53640  53.2147  92.6989 0001296 100.0369  36.6253 15.73263975  1309,6727.7130000000025,91.529,350.45,348.706,0.0
53640.0,STARLINK-4597,PAYLOAD,2022-10-06 22:42:55,15.73176669,9.85e-05,53.2149,90.9037,83.5337,310.9544,0.00066067,0.00093039,0.0,0 STARLINK-4597,1 53640U 22104BE  22279.94646991  .00093039  00000-0  66067-3 0  9999,2 53640  53.2149  90.9037 0000985  83.5337 310.9544 15.73176669  1304,6727.962,91.535,350.48900000000015,349.164,0.0
53640.0,STARLINK-4597,PAYLOAD,2022-10-07 00:00:00,15.73189135,9.59e-05,53.2148,90.6386,79.0694,258.8253,0.00056712,0.00079692,0.0,0 STARLINK-4597,1 53640U 22104BE  22280.00001157  .00079692  00000-0  56712-3 0  9992,2 53640  53.2148  90.6386 0000959  79.0694 258.8253 15.73189135  6308,6727.926,91.534,350.436,349.146,0.0
53640.0,STARLINK-4597,PAYLOAD,2022-10-07 06:00:00,15.73248733,9.990000000000004e-05,53.2143,89.3992,92.5326,222.0571,-0.00044605,-0.00062882,0.0,0 STARLINK-4597,1 53640U 22104BE  22280.25001157 -.00062882  00000-0 -44605-3 0  9992,2 53640  53.2143  89.3992 0000999  92.5326 222.0571 15.73248733  6347,6727.755999999999,91.53,350.293,348.949,0.0
53640.0,STARLINK-4597,PAYLOAD,2022-10-07 14:00:01,15.73215196,0.0001209,53.2142,87.7499,91.075,312.4782,-4.0601e-05,-6.317e-05,0.0,0 STARLINK-4597,1 53640U 22104BE  22280.58334491 -.00006317  00000-0 -40601-4 0  9992,2 53640  53.2142  87.7499 0001209  91.0750 312.4782 15.73215196  1306,6727.852,91.532,350.53,348.903,0.0
53640.0,STARLINK-4597,PAYLOAD,2022-10-07 22:00:00,15.73181274,0.0001102,53.214,86.1018,75.6246,56.87600000000001,5.4320000000000015e-06,1.42e-06,0.0,0 STARLINK-4597,1 53640U 22104BE  22280.91667824  .00000142  00000-0  54320-5 0  9990,2 53640  53.2140  86.1018 0001102  75.6246  56.8760 15.73181274  6459,6727.949000000001,91.534,350.555,349.07199999999995,0.0
53640.0,STARLINK-4597,PAYLOAD,2022-10-08 14:00:01,15.73179986,9.990000000000004e-05,53.2145,82.8008,77.4913,232.8113,0.00011258,0.00015195,0.0,0 STARLINK-4597,1 53640U 22104BE  22281.58334491  .00015195  00000-0  11258-3 0  9990,2 53640  53.2145  82.8008 0000999  77.4913 232.8113 15.73179986  1304,6727.9519999999975,91.534,350.48900000000015,349.145,0.0
53640.0,STARLINK-4597,PAYLOAD,2022-10-08 22:00:00,15.73172683,0.0001233,53.2143,81.1526,62.7754,336.451,0.00041655,0.00058177,0.0,0 STARLINK-4597,1 53640U 22104BE  22281.91667824  .00058177  00000-0  41655-3 0  9997,2 53640  53.2143  81.1526 0001233  62.7754 336.4510 15.73172683  1300,6727.973000000001,91.535,350.668,349.0080000000001,0.0
53640.0,STARLINK-4597,PAYLOAD,2022-10-09 06:00:00,15.73163092,0.0001018,53.2166,79.5026,62.5265,65.6444,0.00015667,0.00021389,0.0,0 STARLINK-4597,1 53640U 22104BE  22282.25001157  .00021389  00000-0  15667-3 0  9995,2 53640  53.2166  79.5026 0001018  62.5265  65.6444 15.73163092  6662,6728.0,91.535,350.55,349.18,0.0
53640.0,STARLINK-4597,PAYLOAD,2022-10-09 14:00:01,15.73239639,0.000113,53.2144,77.8522,63.4738,153.611,-0.00030837,-0.00043745,0.0,0 STARLINK-4597,1 53640U 22104BE  22282.58334491 -.00043745  00000-0 -30837-3 0  9999,2 53640  53.2144  77.8522 0001130  63.4738 153.6110 15.73239639  1305,6727.781999999997,91.531,350.407,348.88699999999994,0.0
53640.0,STARLINK-4597,PAYLOAD,2022-10-09 22:00:00,15.73203392,0.0001190999999999,53.2141,76.2038,50.3035,255.7386,0.0002815,0.00039076,0.0,0 STARLINK-4597,1 53640U 22104BE  22282.91667824  .00039076  00000-0  28150-3 0  9990,2 53640  53.2141  76.2038 0001191  50.3035 255.7386 15.73203392  1305,6727.886,91.533,350.552,348.949,0.0
53640.0,STARLINK-4597,PAYLOAD,2022-10-10 06:00:00,15.73203131,9.89e-05,53.2147,74.5525,56.9433,338.0532,0.00097205,0.00138083,0.0,0 STARLINK-4597,1 53640U 22104BE  22283.25001157  .00138083  00000-0  97205-3 0  9994,2 53640  53.2147  74.5525 0000989  56.9433 338.0532 15.73203131  6811,6727.886,91.533,350.417,349.086,0.0
53640.0,STARLINK-4597,PAYLOAD,2022-10-10 14:00:01,15.73417225,0.0001204,53.2162,72.9036,51.4302,72.5468,-0.0044725,-0.00591545,0.0,0 STARLINK-4597,1 53640U 22104BE  22283.58334491 -.00591545  00000-0 -44725-2 0  9996,2 53640  53.2162  72.9036 0001204  51.4302  72.5468 15.73417225  1301,6727.276,91.521,349.951,348.331,0.0
53640.0,STARLINK-4597,PAYLOAD,2022-10-10 22:00:01,15.73144664,0.0001041,53.2163,71.2569,36.7002,176.4231,-0.0017668,-0.00241025,0.0,0 STARLINK-4597,1 53640U 22104BE  22283.91668981 -.00241025  00000-0 -17668-2 0  9998,2 53640  53.2163  71.2569 0001041  36.7002 176.4231 15.73144664  6926,6728.053000000001,91.536,350.61800000000005,349.218,0.0
53640.0,STARLINK-4597,PAYLOAD,2022-10-11 06:00:00,15.73134481,0.0001286,53.2153,69.6031,50.5566,251.4015,-0.0001739,-0.00024884,0.0,0 STARLINK-4597,1 53640U 22104BE  22284.25001157 -.00024884  00000-0 -17390-3 0  9997,2 53640  53.2153  69.6031 0001286  50.5566 251.4015 15.73134481  6975,6728.081999999999,91.537,350.81199999999984,349.082,0.0
53640.0,STARLINK-4597,PAYLOAD,2022-10-11 14:00:01,15.73210431,0.000147,53.2173,67.9566,64.584,326.0754,-6.1281e-05,-9.215e-05,0.0,0 STARLINK-4597,1 53640U 22104BE  22284.58334491 -.00009215  00000-0 -61281-4 0  9993,2 53640  53.2173  67.9566 0001470  64.5840 326.0754 15.73210431  1307,6727.865,91.533,350.719,348.741,0.0
53640.0,STARLINK-4597,PAYLOAD,2022-10-11 22:00:00,15.73133042,0.00015,53.2145,66.3064,36.7854,82.8317,0.0007468,0.00105208,0.0,0 STARLINK-4597,1 53640U 22104BE  22284.91667824  .00105208  00000-0  74680-3 0  9992,2 53640  53.2145  66.3064 0001500  36.7854  82.8317 15.73133042  1306,6728.0859999999975,91.537,350.96,348.94199999999995,0.0
53640.0,STARLINK-4597,PAYLOAD,2022-10-12 14:00:01,15.73263633,0.0001492,53.2164,63.007,45.2421,252.2619,-0.0012603,-0.00174357,0.0,0 STARLINK-4597,1 53640U 22104BE  22285.58334491 -.00174357  00000-0 -12603-2 0  9996,2 53640  53.2164  63.0070 0001492  45.2421 252.2619 15.73263633  1301,6727.714,91.529,350.583,348.575,0.0
53640.0,STARLINK-4597,PAYLOAD,2022-10-12 22:00:00,15.73146509,0.0001661,53.2167,61.3591,49.5353,336.8926,0.00066508,0.00093551,0.0,0 STARLINK-4597,1 53640U 22104BE  22285.91667824  .00093551  00000-0  66508-3 0  9990,2 53640  53.2167  61.3591 0001661  49.5353 336.8926 15.73146509  1304,6728.0480000000025,91.536,351.03,348.795,0.0
53640.0,STARLINK-4597,PAYLOAD,2022-10-13 14:00:01,15.73173884,0.000162,53.2171,58.0589,39.5215,164.7682,0.00027611,0.00038264,0.0,0 STARLINK-4597,1 53640U 22104BE  22286.58334491  .00038264  00000-0  27611-3 0  9997,2 53640  53.2171  58.0589 0001620  39.5215 164.7682 15.73173884  1303,6727.97,91.535,350.925,348.745,0.0
53640.0,STARLINK-4597,PAYLOAD,2022-10-13 20:00:01,15.73200562,0.000162,53.2172,56.8234,38.3687,142.6668,5.671e-05,7.346e-05,0.0,0 STARLINK-4597,1 53640U 22104BE  22286.83335648  .00007346  00000-0  56710-4 0  9990,2 53640  53.2172  56.8234 0001620  38.3687 142.6668 15.73200562  7384,6727.894,91.533,350.848,348.6690000000001,0.0
53640.0,STARLINK-4597,PAYLOAD,2022-10-13 22:00:00,15.73205181,0.0001613,53.2171,56.4105,37.7176,255.4845,-6.0735e-06,-1.473e-05,0.0,0 STARLINK-4597,1 53640U 22104BE  22286.91667824 -.00001473  00000-0 -60735-5 0  9993,2 53640  53.2171  56.4105 0001613  37.7176 255.4845 15.73205181  1302,6727.88,91.533,350.831,348.66,0.0
53640.0,STARLINK-4597,PAYLOAD,2022-10-14 14:00:01,15.73204077,0.0001763,53.2173,53.1112,39.0834,71.9879,2.8393e-06,-2.22e-06,0.0,0 STARLINK-4597,1 53640U 22104BE  22287.58334491 -.00000222  00000-0  28393-5 0  9992,2 53640  53.2173  53.1112 0001763  39.0834  71.9879 15.73204077  1309,6727.884,91.533,350.935,348.56199999999984,0.0
53640.0,STARLINK-4597,PAYLOAD,2022-10-14 18:00:00,15.73204525,0.0001797,53.2176,52.2871,37.3641,298.1739,-4.2523e-06,-1.218e-05,0.0,0 STARLINK-4597,1 53640U 22104BE  22287.75001157 -.00001218  00000-0 -42523-5 0  9999,2 53640  53.2176  52.2871 0001797  37.3641 298.1739 15.73204525  1304,6727.882,91.533,350.956,348.538,0.0
